start=new Date('2023-04-07T00:00:00.000Z').valueOf();
sats=[{"PERIAPSIS":"538.825","OBJECT_TYPE":"PAYLOAD","GP_ID":"229612175","ELEMENT_SET_NO":"999","TIME_SYSTEM":"UTC","OBJECT_ID":"2022-022A","REV_AT_EPOCH":"6049","COUNTRY_CODE":"US","RA_OF_ASC_NODE":"134.5608","SITE":"AFETR","OBJECT_NAME":"STARLINK-3542","APOAPSIS":"540.630","INCLINATION":"53.2151","MEAN_MOTION_DOT":"0.00005505","SEMIMAJOR_AXIS":"6917.863","ARG_OF_PERICENTER":"85.7101","CLASSIFICATION_TYPE":"U","NORAD_CAT_ID":"51852","BSTAR":"0.00036366000000","PERIOD":"95.437","DECAY_DATE":null,"MEAN_ANOMALY":"274.4040","MEAN_ELEMENT_THEORY":"SGP4","CENTER_NAME":"EARTH","REF_FRAME":"TEME","FILE":"3881771","MEAN_MOTION":"15.08845793","TLE_LINE1":"1 51852U 22022A   23096.46657139  .00005505  00000-0  36366-3 0  9992","EPOCH":"2023-04-06T11:11:51.768096","LAUNCH_DATE":"2022-03-03","EPHEMERIS_TYPE":"0","MEAN_MOTION_DDOT":"0.0000000000000","ECCENTRICITY":"0.00013050","TLE_LINE2":"2 51852  53.2151 134.5608 0001305  85.7101 274.4040 15.08845793 60498","RCS_SIZE":"LARGE"},{"MEAN_MOTION":"15.08841241","FILE":"3881771","TLE_LINE1":"1 51853U 22022B   23096.53745083 -.00000293  00000-0 -28937-6 0  9996","PERIOD":"95.437","DECAY_DATE":null,"REF_FRAME":"TEME","MEAN_ANOMALY":"258.0939","MEAN_ELEMENT_THEORY":"SGP4","CENTER_NAME":"EARTH","ECCENTRICITY":"0.00015180","TLE_LINE2":"2 51853  53.2165 134.2493 0001518 102.0223 258.0939 15.08841241 61701","EPHEMERIS_TYPE":"0","MEAN_MOTION_DDOT":"0.0000000000000","RCS_SIZE":"LARGE","EPOCH":"2023-04-06T12:53:55.751712","LAUNCH_DATE":"2022-03-03","TIME_SYSTEM":"UTC","OBJECT_ID":"2022-022B","REV_AT_EPOCH":"6170","PERIAPSIS":"538.691","GP_ID":"229611925","ELEMENT_SET_NO":"999","OBJECT_TYPE":"PAYLOAD","ARG_OF_PERICENTER":"102.0223","BSTAR":"-0.00000028937000","NORAD_CAT_ID":"51853","CLASSIFICATION_TYPE":"U","SITE":"AFETR","OBJECT_NAME":"STARLINK-3539","RA_OF_ASC_NODE":"134.2493","COUNTRY_CODE":"US","MEAN_MOTION_DOT":"-0.00000293","SEMIMAJOR_AXIS":"6917.877","APOAPSIS":"540.792","INCLINATION":"53.2165"},{"EPOCH":"2023-04-06T14:17:19.787424","LAUNCH_DATE":"2022-03-03","TLE_LINE2":"2 51854  53.2163 133.9759 0001597 111.2839 248.8324 15.08847356 61778","ECCENTRICITY":"0.00015970","EPHEMERIS_TYPE":"0","MEAN_MOTION_DDOT":"0.0000000000000","RCS_SIZE":"LARGE","DECAY_DATE":null,"PERIOD":"95.437","REF_FRAME":"TEME","MEAN_ANOMALY":"248.8324","CENTER_NAME":"EARTH","MEAN_ELEMENT_THEORY":"SGP4","MEAN_MOTION":"15.08847356","FILE":"3882049","TLE_LINE1":"1 51854U 22022C   23096.59536791  .00004741  00000-0  31572-3 0  9993","SITE":"AFETR","OBJECT_NAME":"STARLINK-3541","RA_OF_ASC_NODE":"133.9759","COUNTRY_CODE":"US","SEMIMAJOR_AXIS":"6917.858","MEAN_MOTION_DOT":"0.00004741","INCLINATION":"53.2163","APOAPSIS":"540.828","ARG_OF_PERICENTER":"111.2839","BSTAR":"0.00031572000000","NORAD_CAT_ID":"51854","CLASSIFICATION_TYPE":"U","PERIAPSIS":"538.618","ELEMENT_SET_NO":"999","GP_ID":"229645018","OBJECT_TYPE":"PAYLOAD","OBJECT_ID":"2022-022C","TIME_SYSTEM":"UTC","REV_AT_EPOCH":"6177"},{"EPOCH":"2023-04-06T14:06:43.139520","LAUNCH_DATE":"2022-03-03","EPHEMERIS_TYPE":"0","MEAN_MOTION_DDOT":"0.0000000000000","TLE_LINE2":"2 51855  53.2164 134.0287 0005040 327.0194  33.0483 15.08843945 61721","ECCENTRICITY":"0.00050400","RCS_SIZE":"LARGE","DECAY_DATE":null,"PERIOD":"95.437","MEAN_ANOMALY":"33.0483","CENTER_NAME":"EARTH","MEAN_ELEMENT_THEORY":"SGP4","REF_FRAME":"TEME","FILE":"3881948","MEAN_MOTION":"15.08843945","TLE_LINE1":"1 51855U 22022D   23096.58799930  .00002945  00000-0  20305-3 0  9995","COUNTRY_CODE":"US","RA_OF_ASC_NODE":"134.0287","SITE":"AFETR","OBJECT_NAME":"STARLINK-3545","INCLINATION":"53.2164","APOAPSIS":"543.220","SEMIMAJOR_AXIS":"6917.868","MEAN_MOTION_DOT":"0.00002945","ARG_OF_PERICENTER":"327.0194","CLASSIFICATION_TYPE":"U","NORAD_CAT_ID":"51855","BSTAR":"0.00020305000000","PERIAPSIS":"536.247","OBJECT_TYPE":"PAYLOAD","ELEMENT_SET_NO":"999","GP_ID":"229618888","OBJECT_ID":"2022-022D","TIME_SYSTEM":"UTC","REV_AT_EPOCH":"6172"},{"GP_ID":"229611675","ELEMENT_SET_NO":"999","OBJECT_TYPE":"PAYLOAD","PERIAPSIS":"538.782","REV_AT_EPOCH":"6179","TIME_SYSTEM":"UTC","OBJECT_ID":"2022-022E","MEAN_MOTION_DOT":"0.00008191","SEMIMAJOR_AXIS":"6917.856","APOAPSIS":"540.659","INCLINATION":"53.2146","SITE":"AFETR","OBJECT_NAME":"STARLINK-3568","RA_OF_ASC_NODE":"134.2917","COUNTRY_CODE":"US","BSTAR":"0.00053201000000","CLASSIFICATION_TYPE":"U","NORAD_CAT_ID":"51856","ARG_OF_PERICENTER":"96.6986","REF_FRAME":"TEME","MEAN_ANOMALY":"263.4160","CENTER_NAME":"EARTH","MEAN_ELEMENT_THEORY":"SGP4","PERIOD":"95.437","DECAY_DATE":null,"TLE_LINE1":"1 51856U 22022E   23096.52545079  .00008191  00000-0  53201-3 0  9993","MEAN_MOTION":"15.08848132","FILE":"3881771","LAUNCH_DATE":"2022-03-03","EPOCH":"2023-04-06T12:36:38.948256","RCS_SIZE":"LARGE","TLE_LINE2":"2 51856  53.2146 134.2917 0001357  96.6986 263.4160 15.08848132 61790","ECCENTRICITY":"0.00013570","EPHEMERIS_TYPE":"0","MEAN_MOTION_DDOT":"0.0000000000000"},{"LAUNCH_DATE":"2022-03-03","EPOCH":"2023-04-06T13:56:07.944864","RCS_SIZE":"LARGE","TLE_LINE2":"2 51857  53.2157 134.0456 0001435  88.6068 271.5089 15.08853149 61770","ECCENTRICITY":"0.00014350","MEAN_MOTION_DDOT":"0.0000000000000","EPHEMERIS_TYPE":"0","REF_FRAME":"TEME","MEAN_ANOMALY":"271.5089","CENTER_NAME":"EARTH","MEAN_ELEMENT_THEORY":"SGP4","PERIOD":"95.437","DECAY_DATE":null,"TLE_LINE1":"1 51857U 22022F   23096.58064751  .00004323  00000-0  28943-3 0  9991","MEAN_MOTION":"15.08853149","FILE":"3882049","MEAN_MOTION_DOT":"0.00004323","SEMIMAJOR_AXIS":"6917.840","APOAPSIS":"540.698","INCLINATION":"53.2157","SITE":"AFETR","OBJECT_NAME":"STARLINK-3571","RA_OF_ASC_NODE":"134.0456","COUNTRY_CODE":"US","BSTAR":"0.00028943000000","CLASSIFICATION_TYPE":"U","NORAD_CAT_ID":"51857","ARG_OF_PERICENTER":"88.6068","GP_ID":"229643781","ELEMENT_SET_NO":"999","OBJECT_TYPE":"PAYLOAD","PERIAPSIS":"538.712","REV_AT_EPOCH":"6177","TIME_SYSTEM":"UTC","OBJECT_ID":"2022-022F"},{"TIME_SYSTEM":"UTC","OBJECT_ID":"2022-022G","REV_AT_EPOCH":"6177","PERIAPSIS":"538.807","GP_ID":"229644531","ELEMENT_SET_NO":"999","OBJECT_TYPE":"PAYLOAD","ARG_OF_PERICENTER":"94.3116","BSTAR":"0.00005355700000","CLASSIFICATION_TYPE":"U","NORAD_CAT_ID":"51858","SITE":"AFETR","OBJECT_NAME":"STARLINK-3563","RA_OF_ASC_NODE":"134.0287","COUNTRY_CODE":"US","MEAN_MOTION_DOT":"0.00000565","SEMIMAJOR_AXIS":"6917.864","APOAPSIS":"540.652","INCLINATION":"53.2150","MEAN_MOTION":"15.08845245","FILE":"3882049","TLE_LINE1":"1 51858U 22022G   23096.58432592  .00000565  00000-0  53557-4 0  9998","PERIOD":"95.437","DECAY_DATE":null,"REF_FRAME":"TEME","MEAN_ANOMALY":"265.8028","MEAN_ELEMENT_THEORY":"SGP4","CENTER_NAME":"EARTH","TLE_LINE2":"2 51858  53.2150 134.0287 0001334  94.3116 265.8028 15.08845245 61779","ECCENTRICITY":"0.00013340","EPHEMERIS_TYPE":"0","MEAN_MOTION_DDOT":"0.0000000000000","RCS_SIZE":"LARGE","EPOCH":"2023-04-06T14:01:25.759488","LAUNCH_DATE":"2022-03-03"},{"RCS_SIZE":"LARGE","MEAN_MOTION_DDOT":"0.0000000000000","EPHEMERIS_TYPE":"0","TLE_LINE2":"2 51859  53.2166 124.8603 0001361  89.6165 270.4983 15.08845634 61883","ECCENTRICITY":"0.00013610","LAUNCH_DATE":"2022-03-03","EPOCH":"2023-04-06T09:39:10.966464","TLE_LINE1":"1 51859U 22022H   23096.40221026 -.00000045  00000-0  15238-4 0  9996","FILE":"3881771","MEAN_MOTION":"15.08845634","MEAN_ELEMENT_THEORY":"SGP4","MEAN_ANOMALY":"270.4983","CENTER_NAME":"EARTH","REF_FRAME":"TEME","PERIOD":"95.437","DECAY_DATE":null,"CLASSIFICATION_TYPE":"U","NORAD_CAT_ID":"51859","BSTAR":"0.00001523800000","ARG_OF_PERICENTER":"89.6165","APOAPSIS":"540.670","INCLINATION":"53.2166","MEAN_MOTION_DOT":"-0.00000045","SEMIMAJOR_AXIS":"6917.863","RA_OF_ASC_NODE":"124.8603","COUNTRY_CODE":"US","OBJECT_NAME":"STARLINK-3560","SITE":"AFETR","REV_AT_EPOCH":"6188","TIME_SYSTEM":"UTC","OBJECT_ID":"2022-022H","OBJECT_TYPE":"PAYLOAD","GP_ID":"229611424","ELEMENT_SET_NO":"999","PERIAPSIS":"538.787"},{"EPOCH":"2023-04-06T12:59:10.614048","LAUNCH_DATE":"2022-03-03","EPHEMERIS_TYPE":"0","MEAN_MOTION_DDOT":"0.0000000000000","ECCENTRICITY":"0.00015170","TLE_LINE2":"2 51860  53.2138 124.2260 0001517  91.3672 268.7494 15.08874454 61860","RCS_SIZE":"LARGE","PERIOD":"95.435","DECAY_DATE":null,"MEAN_ELEMENT_THEORY":"SGP4","MEAN_ANOMALY":"268.7494","CENTER_NAME":"EARTH","REF_FRAME":"TEME","FILE":"3881948","MEAN_MOTION":"15.08874454","TLE_LINE1":"1 51860U 22022J   23096.54109507  .00011110  00000-0  71433-3 0  9994","COUNTRY_CODE":"US","RA_OF_ASC_NODE":"124.2260","SITE":"AFETR","OBJECT_NAME":"STARLINK-3559","APOAPSIS":"540.690","INCLINATION":"53.2138","MEAN_MOTION_DOT":"0.00011110","SEMIMAJOR_AXIS":"6917.775","ARG_OF_PERICENTER":"91.3672","CLASSIFICATION_TYPE":"U","NORAD_CAT_ID":"51860","BSTAR":"0.00071433000000","PERIAPSIS":"538.591","OBJECT_TYPE":"PAYLOAD","GP_ID":"229618967","ELEMENT_SET_NO":"999","OBJECT_ID":"2022-022J","TIME_SYSTEM":"UTC","REV_AT_EPOCH":"6186"},{"RA_OF_ASC_NODE":"124.5859","COUNTRY_CODE":"US","SITE":"AFETR","OBJECT_NAME":"STARLINK-3562","INCLINATION":"53.2154","APOAPSIS":"540.441","SEMIMAJOR_AXIS":"6917.851","MEAN_MOTION_DOT":"0.00007507","ARG_OF_PERICENTER":"83.4183","CLASSIFICATION_TYPE":"U","NORAD_CAT_ID":"51861","BSTAR":"0.00048909000000","PERIAPSIS":"538.991","OBJECT_TYPE":"PAYLOAD","ELEMENT_SET_NO":"999","GP_ID":"229611926","OBJECT_ID":"2022-022K","TIME_SYSTEM":"UTC","REV_AT_EPOCH":"6176","EPOCH":"2023-04-06T11:02:35.211264","LAUNCH_DATE":"2022-03-03","EPHEMERIS_TYPE":"0","MEAN_MOTION_DDOT":"0.0000000000000","ECCENTRICITY":"0.00010480","TLE_LINE2":"2 51861  53.2154 124.5859 0001048  83.4183 276.6928 15.08849750 61764","RCS_SIZE":"LARGE","DECAY_DATE":null,"PERIOD":"95.437","MEAN_ELEMENT_THEORY":"SGP4","MEAN_ANOMALY":"276.6928","CENTER_NAME":"EARTH","REF_FRAME":"TEME","FILE":"3881771","MEAN_MOTION":"15.08849750","TLE_LINE1":"1 51861U 22022K   23096.46012976  .00007507  00000-0  48909-3 0  9996"}];
